{"type": "FeatureCollection", "features": [ {"type": "Feature", "properties": {"norad_id": 30160, "name": "FENGYUN 1C DEB", "group": "fengyun-1c-debris", "lat": -5.314332902389892, "lon": -51.664077628972876, "alt_km": 1130.1936368462875, "timestamp": "2025-12-26T12:57:39.547235+00:00", "meta": {"OBJECT_NAME": "FENGYUN 1C DEB", "OBJECT_ID": "1999-025TR", "EPOCH": "2025-12-25T19:15:13.984416", "MEAN_MOTION": 13.42912696, "ECCENTRICITY": 0.03435224, "INCLINATION": 98.8876, "RA_OF_ASC_NODE": 306.8501, "ARG_OF_PERICENTER": 94.8661, "MEAN_ANOMALY": 298.7723, "EPHEMERIS_TYPE": 0, "CLASSIFICATION_TYPE": "U", "NORAD_CAT_ID": 30160, "ELEMENT_SET_NO": 999, "REV_AT_EPOCH": 92589, "BSTAR": 0.00130833, "MEAN_MOTION_DOT": 1.024e-05, "MEAN_MOTION_DDOT": 0}, "tle": {"line1": "1 30160U 99025TR  25359.80224519  .00001024  00000+0  13083-2 0  9993", "line2": "2 30160  98.8876 306.8501 0343522  94.8661 298.7723 13.42912696925898"}}, "geometry": {"type": "Point", "coordinates": [-51.664077628972876, -5.314332902389892]}}, {"type": "Feature", "properties": {"norad_id": 30161, "name": "FENGYUN 1C DEB", "group": "fengyun-1c-debris", "lat": -73.41102485799347, "lon": 130.1689576184508, "alt_km": 872.2873087923472, "timestamp": "2025-12-26T12:57:39.547246+00:00", "meta": {"OBJECT_NAME": "FENGYUN 1C DEB", "OBJECT_ID": "1999-025TS", "EPOCH": "2025-12-25T13:12:02.179872", "MEAN_MOTION": 13.49753719, "ECCENTRICITY": 0.0327634, "INCLINATION": 100.5069, "RA_OF_ASC_NODE": 347.6551, "ARG_OF_PERICENTER": 226.9173, "MEAN_ANOMALY": 259.9584, "EPHEMERIS_TYPE": 0, "CLASSIFICATION_TYPE": "U", "NORAD_CAT_ID": 30161, "ELEMENT_SET_NO": 999, "REV_AT_EPOCH": 92732, "BSTAR": 0.0014194, "MEAN_MOTION_DOT": 1.204e-05, "MEAN_MOTION_DDOT": 0}, "tle": {"line1": "1 30161U 99025TS  25359.55002523  .00001204  00000+0  14194-2 0  9999", "line2": "2 30161 100.5069 347.6551 0327634 226.9173 259.9584 13.49753719927324"}}, "geometry": {"type": "Point", "coordinates": [130.1689576184508, -73.41102485799347]}}, {"type": "Feature", "properties": {"norad_id": 30162, "name": "FENGYUN 1C DEB", "group": "fengyun-1c-debris", "lat": -52.670825981207756, "lon": -136.60944476363804, "alt_km": 1022.568288950326, "timestamp": "2025-12-26T12:57:39.547269+00:00", "meta": {"OBJECT_NAME": "FENGYUN 1C DEB", "OBJECT_ID": "1999-025TT", "EPOCH": "2025-12-26T03:10:44.651136", "MEAN_MOTION": 13.53458184, "ECCENTRICITY": 0.03142644, "INCLINATION": 99.4875, "RA_OF_ASC_NODE": 55.6658, "ARG_OF_PERICENTER": 315.6385, "MEAN_ANOMALY": 96.6715, "EPHEMERIS_TYPE": 0, "CLASSIFICATION_TYPE": "U", "NORAD_CAT_ID": 30162, "ELEMENT_SET_NO": 999, "REV_AT_EPOCH": 92842, "BSTAR": 0.002580515, "MEAN_MOTION_DOT": 2.327e-05, "MEAN_MOTION_DDOT": 0}, "tle": {"line1": "1 30162U 99025TT  25360.13246124  .00002327  00000+0  25805-2 0  9991", "line2": "2 30162  99.4875  55.6658 0314264 315.6385  96.6715 13.53458184928423"}}, "geometry": {"type": "Point", "coordinates": [-136.60944476363804, -52.670825981207756]}}, {"type": "Feature", "properties": {"norad_id": 30163, "name": "FENGYUN 1C DEB", "group": "fengyun-1c-debris", "lat": -64.52495785188802, "lon": -85.05370589817845, "alt_km": 927.6417059386958, "timestamp": "2025-12-26T12:57:39.547280+00:00", "meta": {"OBJECT_NAME": "FENGYUN 1C DEB", "OBJECT_ID": "1999-025TU", "EPOCH": "2025-12-25T18:36:18.061920", "MEAN_MOTION": 13.38821668, "ECCENTRICITY": 0.03741252, "INCLINATION": 98.7014, "RA_OF_ASC_NODE": 113.0377, "ARG_OF_PERICENTER": 199.8281, "MEAN_ANOMALY": 318.576, "EPHEMERIS_TYPE": 0, "CLASSIFICATION_TYPE": "U", "NORAD_CAT_ID": 30163, "ELEMENT_SET_NO": 999, "REV_AT_EPOCH": 92119, "BSTAR": 0.0020615055, "MEAN_MOTION_DOT": 1.619e-05, "MEAN_MOTION_DDOT": 0}, "tle": {"line1": "1 30163U 99025TU  25359.77520905  .00001619  00000+0  20615-2 0  9999", "line2": "2 30163  98.7014 113.0377 0374125 199.8281 318.5760 13.38821668921194"}}, "geometry": {"type": "Point", "coordinates": [-85.05370589817845, -64.52495785188802]}}, {"type": "Feature", "properties": {"norad_id": 30167, "name": "FENGYUN 1C DEB", "group": "fengyun-1c-debris", "lat": -57.57328388174531, "lon": -107.8291057180348, "alt_km": 795.5923434633123, "timestamp": "2025-12-26T12:57:39.547291+00:00", "meta": {"OBJECT_NAME": "FENGYUN 1C DEB", "OBJECT_ID": "1999-025TY", "EPOCH": "2025-12-26T05:29:51.869184", "MEAN_MOTION": 14.48591177, "ECCENTRICITY": 0.01443391, "INCLINATION": 98.9671, "RA_OF_ASC_NODE": 86.2327, "ARG_OF_PERICENTER": 114.288, "MEAN_ANOMALY": 302.2472, "EPHEMERIS_TYPE": 0, "CLASSIFICATION_TYPE": "U", "NORAD_CAT_ID": 30167, "ELEMENT_SET_NO": 999, "REV_AT_EPOCH": 99554, "BSTAR": 0.0004319035, "MEAN_MOTION_DOT": 1.797e-05, "MEAN_MOTION_DDOT": 0}, "tle": {"line1": "1 30167U 99025TY  25360.22907256  .00001797  00000+0  43190-3 0  9994", "line2": "2 30167  98.9671  86.2327 0144339 114.2880 302.2472 14.48591177995544"}}, "geometry": {"type": "Point", "coordinates": [-107.8291057180348, -57.57328388174531]}}, {"type": "Feature", "properties": {"norad_id": 30168, "name": "FENGYUN 1C DEB", "group": "fengyun-1c-debris", "lat": 14.707187089681055, "lon": -106.76686426954598, "alt_km": 674.2219801823376, "timestamp": "2025-12-26T12:57:39.547301+00:00", "meta": {"OBJECT_NAME": "FENGYUN 1C DEB", "OBJECT_ID": "1999-025TZ", "EPOCH": "2025-12-26T03:56:58.723584", "MEAN_MOTION": 14.53073032, "ECCENTRICITY": 0.01002663, "INCLINATION": 97.3885, "RA_OF_ASC_NODE": 70.9502, "ARG_OF_PERICENTER": 112.248, "MEAN_ANOMALY": 248.9389, "EPHEMERIS_TYPE": 0, "CLASSIFICATION_TYPE": "U", "NORAD_CAT_ID": 30168, "ELEMENT_SET_NO": 999, "REV_AT_EPOCH": 98506, "BSTAR": 0.0016393712, "MEAN_MOTION_DOT": 7.205e-05, "MEAN_MOTION_DDOT": 0}, "tle": {"line1": "1 30168U 99025TZ  25360.16456856  .00007205  00000+0  16394-2 0  9998", "line2": "2 30168  97.3885  70.9502 0100266 112.2480 248.9389 14.53073032985065"}}, "geometry": {"type": "Point", "coordinates": [-106.76686426954598, 14.707187089681055]}}, {"type": "Feature", "properties": {"norad_id": 30169, "name": "FENGYUN 1C DEB", "group": "fengyun-1c-debris", "lat": -68.92140748160007, "lon": -132.30089814832337, "alt_km": 641.6489887387788, "timestamp": "2025-12-26T12:57:39.547312+00:00", "meta": {"OBJECT_NAME": "FENGYUN 1C DEB", "OBJECT_ID": "1999-025UA", "EPOCH": "2025-12-26T03:44:11.539968", "MEAN_MOTION": 14.5850523, "ECCENTRICITY": 0.02126811, "INCLINATION": 98.3344, "RA_OF_ASC_NODE": 69.6676, "ARG_OF_PERICENTER": 185.595, "MEAN_ANOMALY": 205.8168, "EPHEMERIS_TYPE": 0, "CLASSIFICATION_TYPE": "U", "NORAD_CAT_ID": 30169, "ELEMENT_SET_NO": 999, "REV_AT_EPOCH": 97919, "BSTAR": 0.0026464884, "MEAN_MOTION_DOT": 0.00016813, "MEAN_MOTION_DDOT": 0}, "tle": {"line1": "1 30169U 99025UA  25360.15568912  .00016813  00000+0  26465-2 0  9990", "line2": "2 30169  98.3344  69.6676 0212681 185.5950 205.8168 14.58505230979193"}}, "geometry": {"type": "Point", "coordinates": [-132.30089814832337, -68.92140748160007]}}, {"type": "Feature", "properties": {"norad_id": 30170, "name": "FENGYUN 1C DEB", "group": "fengyun-1c-debris", "lat": -77.30745389264571, "lon": 123.36184562058587, "alt_km": 848.837777875423, "timestamp": "2025-12-26T12:57:39.547322+00:00", "meta": {"OBJECT_NAME": "FENGYUN 1C DEB", "OBJECT_ID": "1999-025UB", "EPOCH": "2025-12-25T22:15:39.652992", "MEAN_MOTION": 14.00321957, "ECCENTRICITY": 0.0077491, "INCLINATION": 98.8498, "RA_OF_ASC_NODE": 346.537, "ARG_OF_PERICENTER": 237.5434, "MEAN_ANOMALY": 176.9296, "EPHEMERIS_TYPE": 0, "CLASSIFICATION_TYPE": "U", "NORAD_CAT_ID": 30170, "ELEMENT_SET_NO": 999, "REV_AT_EPOCH": 96600, "BSTAR": 0.00028826, "MEAN_MOTION_DOT": 3.95e-06, "MEAN_MOTION_DDOT": 0}, "tle": {"line1": "1 30170U 99025UB  25359.92754228  .00000395  00000+0  28826-3 0  9994", "line2": "2 30170  98.8498 346.5370 0077491 237.5434 176.9296 14.00321957966006"}}, "geometry": {"type": "Point", "coordinates": [123.36184562058587, -77.30745389264571]}}, {"type": "Feature", "properties": {"norad_id": 30171, "name": "FENGYUN 1C DEB", "group": "fengyun-1c-debris", "lat": -46.54036349239171, "lon": -133.9686076731483, "alt_km": 895.5423602791661, "timestamp": "2025-12-26T12:57:39.547332+00:00", "meta": {"OBJECT_NAME": "FENGYUN 1C DEB", "OBJECT_ID": "1999-025UC", "EPOCH": "2025-12-26T02:52:27.468768", "MEAN_MOTION": 13.96871302, "ECCENTRICITY": 0.01843376, "INCLINATION": 98.3976, "RA_OF_ASC_NODE": 216.6794, "ARG_OF_PERICENTER": 229.7855, "MEAN_ANOMALY": 128.7055, "EPHEMERIS_TYPE": 0, "CLASSIFICATION_TYPE": "U", "NORAD_CAT_ID": 30171, "ELEMENT_SET_NO": 999, "REV_AT_EPOCH": 96457, "BSTAR": 0.00026114479, "MEAN_MOTION_DOT": 3.8e-06, "MEAN_MOTION_DDOT": 0}, "tle": {"line1": "1 30171U 99025UC  25360.11976237  .00000380  00000+0  26114-3 0  9996", "line2": "2 30171  98.3976 216.6794 0184337 229.7855 128.7055 13.96871302964574"}}, "geometry": {"type": "Point", "coordinates": [-133.9686076731483, -46.54036349239171]}}, {"type": "Feature", "properties": {"norad_id": 30172, "name": "FENGYUN 1C DEB", "group": "fengyun-1c-debris", "lat": 16.340376039696757, "lon": -22.704162746137293, "alt_km": 892.5978706248616, "timestamp": "2025-12-26T12:57:39.547342+00:00", "meta": {"OBJECT_NAME": "FENGYUN 1C DEB", "OBJECT_ID": "1999-025UD", "EPOCH": "2025-12-25T11:57:26.316000", "MEAN_MOTION": 14.12522904, "ECCENTRICITY": 0.0068876, "INCLINATION": 99.2364, "RA_OF_ASC_NODE": 338.9568, "ARG_OF_PERICENTER": 165.8819, "MEAN_ANOMALY": 316.3965, "EPHEMERIS_TYPE": 0, "CLASSIFICATION_TYPE": "U", "NORAD_CAT_ID": 30172, "ELEMENT_SET_NO": 999, "REV_AT_EPOCH": 96697, "BSTAR": 0.0012185, "MEAN_MOTION_DOT": 2.257e-05, "MEAN_MOTION_DDOT": 0}, "tle": {"line1": "1 30172U 99025UD  25359.49822125  .00002257  00000+0  12185-2 0  9999", "line2": "2 30172  99.2364 338.9568 0068876 165.8819 316.3965 14.12522904966973"}}, "geometry": {"type": "Point", "coordinates": [-22.704162746137293, 16.340376039696757]}}]}